IRIDIUM 26              
1 24903U 97043A   25323.93383989  .00000490  00000+0  15789-3 0  9993
2 24903  86.3978  45.1452 0001939  93.5588 266.5832 14.37301969479119
IRIDIUM 22              
1 24907U 97043E   25323.64468232  .00000444  00000+0  14599-3 0  9997
2 24907  86.3980  48.9399 0002053  97.6967 262.4464 14.36098179479088
DUMMY MASS 1            
1 24925U 97048A   25323.72642511  .00000562  00000+0  59407-4 0  9994
2 24925  86.3354  63.3535 0005192 333.5127  26.5831 14.87152784528242
DUMMY MASS 2            
1 24926U 97048B   25323.71454551  .00000560  00000+0  59530-4 0  9994
2 24926  86.3353  64.9957 0006396 344.8811  15.2221 14.86903508528019
IRIDIUM 29              
1 24944U 97051A   25323.75073907  .00000592  00000+0  19462-3 0  9998
2 24944  86.3947  78.5948 0002197  97.6075 262.5371 14.36632454475602
IRIDIUM 33              
1 24946U 97051C   25323.76555219  .00000446  00000+0  14983-3 0  9993
2 24946  86.3863  77.8636 0005923 296.1153  63.9434 14.35013157475054
IRIDIUM 28              
1 24948U 97051E   25323.76534428  .00000536  00000+0  17248-3 0  9991
2 24948  86.3955  76.0146 0001551  88.0839 272.0536 14.37533689476198
IRIDIUM 36              
1 24967U 97056C   25323.84355345  .00000524  00000+0  16774-3 0  9995
2 24967  86.3941 107.6125 0001804  95.2797 264.8607 14.37753893474586
